STARLINK-4670           
1 53744U 22107AW  25179.55839175 -.00000085  00000+0  12775-4 0  9991
2 53744  53.2191 324.5835 0001268  92.5063 267.6074 15.08832202156238
STARLINK-4656           
1 53745U 22107AX  25179.80500674 -.00001160  00000+0 -54813-4 0  9994
2 53745  53.2182 323.9798 0001362  95.8577 264.2571 15.08848581155489
STARLINK-4589           
1 53746U 22107AY  25179.73140159 -.00000539  00000+0 -15779-4 0  9992
2 53746  53.2180 324.2331 0001111  86.0532 274.0587 15.08836951155473
STARLINK-4612           
1 53750U 22107BC  25179.61365409 -.00000600  00000+0 -19623-4 0  9992
2 53750  53.2179 324.9184 0001243  89.4705 270.6429 15.08842376156245
STARLINK-4718           
1 53773U 22111A   25179.83626649 -.00000117  00000+0  10721-4 0  9994
2 53773  53.2202 343.6359 0001423  92.6316 267.4839 15.08836844154423
STARLINK-4719           
1 53774U 22111B   25179.83257037  .00001494  00000+0  11187-3 0  9990
2 53774  53.2193 343.6098 0001414  86.6695 273.4458 15.08856399154427
STARLINK-4722           
1 53775U 22111C   25179.59802522 -.00000314  00000+0 -16604-5 0  9992
2 53775  53.2185 335.0171 0001256  96.5700 263.5436 15.08832350155335
STARLINK-4708           
1 53776U 22111D   25179.91670139  .00502047  00000+0  26367-2 0  9998
2 53776  53.2113 321.4739 0001362  42.1951 304.9071 15.78822615154737
STARLINK-4664           
1 53777U 22111E   25179.59065216 -.00000553  00000+0 -16664-4 0  9995
2 53777  53.2188 334.9728 0001318  91.2438 268.8705 15.08839610155338
STARLINK-4709           
1 53778U 22111F   25179.88270404  .00000010  00000+0  18728-4 0  9994
2 53778  53.2196 338.2295 0001415  81.6178 278.4975 15.08835197154506
STARLINK-4706           
1 53779U 22111G   25179.58697071 -.00000286  00000+0  88077-7 0  9998
2 53779  53.2184 334.9490 0001241  91.4140 268.6994 15.08833755155331
STARLINK-4678           
1 53780U 22111H   25179.59433991  .00000570  00000+0  53900-4 0  9999
2 53780  53.2189 334.9941 0002202 117.3495 242.7722 15.08836160155333
STARLINK-4462           
1 53781U 22111J   25179.84087157 -.00000216  00000+0  45207-5 0  9997
2 53781  53.2191 333.6898 0001337  90.7342 269.3803 15.08837444154562
STARLINK-4679           
1 53782U 22111K   25179.58328432 -.00000386  00000+0 -61752-5 0  9995
2 53782  53.2186 334.9261 0001370  93.6058 266.5091 15.08834185155331
