[
  {
    "OBJECT_NAME": "STARLINK-4670",
    "OBJECT_ID": "2022-107AW",
    "EPOCH": "2025-06-28T13:24:05.047200",
    "MEAN_MOTION": 15.08832202,
    "ECCENTRICITY": 0.0001268,
    "INCLINATION": 53.2191,
    "RA_OF_ASC_NODE": 324.5835,
    "ARG_OF_PERICENTER": 92.5063,
    "MEAN_ANOMALY": 267.6074,
    "EPHEMERIS_TYPE": 0,
    "CLASSIFICATION_TYPE": "U",
    "NORAD_CAT_ID": 53744,
    "ELEMENT_SET_NO": 999,
    "REV_AT_EPOCH": 15623,
    "BSTAR": 1.2775e-05,
    "MEAN_MOTION_DOT": -8.5e-07,
    "MEAN_MOTION_DDOT": 0
  },
  {
    "OBJECT_NAME": "STARLINK-4656",
    "OBJECT_ID": "2022-107AX",
    "EPOCH": "2025-06-28T19:19:12.582336",
    "MEAN_MOTION": 15.08848581,
    "ECCENTRICITY": 0.0001362,
    "INCLINATION": 53.2182,
    "RA_OF_ASC_NODE": 323.9798,
    "ARG_OF_PERICENTER": 95.8577,
    "MEAN_ANOMALY": 264.2571,
    "EPHEMERIS_TYPE": 0,
    "CLASSIFICATION_TYPE": "U",
    "NORAD_CAT_ID": 53745,
    "ELEMENT_SET_NO": 999,
    "REV_AT_EPOCH": 15548,
    "BSTAR": -5.4813e-05,
    "MEAN_MOTION_DOT": -1.16e-05,
    "MEAN_MOTION_DDOT": 0
  },
  {
    "OBJECT_NAME": "STARLINK-4589",
    "OBJECT_ID": "2022-107AY",
    "EPOCH": "2025-06-28T17:33:13.097376",
    "MEAN_MOTION": 15.08836951,
    "ECCENTRICITY": 0.0001111,
    "INCLINATION": 53.218,
    "RA_OF_ASC_NODE": 324.2331,
    "ARG_OF_PERICENTER": 86.0532,
    "MEAN_ANOMALY": 274.0587,
    "EPHEMERIS_TYPE": 0,
    "CLASSIFICATION_TYPE": "U",
    "NORAD_CAT_ID": 53746,
    "ELEMENT_SET_NO": 999,
    "REV_AT_EPOCH": 15547,
    "BSTAR": -1.5779e-05,
    "MEAN_MOTION_DOT": -5.39e-06,
    "MEAN_MOTION_DDOT": 0
  },
  {
    "OBJECT_NAME": "STARLINK-4612",
    "OBJECT_ID": "2022-107BC",
    "EPOCH": "2025-06-28T14:43:39.713376",
    "MEAN_MOTION": 15.08842376,
    "ECCENTRICITY": 0.0001243,
    "INCLINATION": 53.2179,
    "RA_OF_ASC_NODE": 324.9184,
    "ARG_OF_PERICENTER": 89.4705,
    "MEAN_ANOMALY": 270.6429,
    "EPHEMERIS_TYPE": 0,
    "CLASSIFICATION_TYPE": "U",
    "NORAD_CAT_ID": 53750,
    "ELEMENT_SET_NO": 999,
    "REV_AT_EPOCH": 15624,
    "BSTAR": -1.9623e-05,
    "MEAN_MOTION_DOT": -6e-06,
    "MEAN_MOTION_DDOT": 0
  },
  {
    "OBJECT_NAME": "STARLINK-4718",
    "OBJECT_ID": "2022-111A",
    "EPOCH": "2025-06-28T20:04:13.424736",
    "MEAN_MOTION": 15.08836844,
    "ECCENTRICITY": 0.0001423,
    "INCLINATION": 53.2202,
    "RA_OF_ASC_NODE": 343.6359,
    "ARG_OF_PERICENTER": 92.6316,
    "MEAN_ANOMALY": 267.4839,
    "EPHEMERIS_TYPE": 0,
    "CLASSIFICATION_TYPE": "U",
    "NORAD_CAT_ID": 53773,
    "ELEMENT_SET_NO": 999,
    "REV_AT_EPOCH": 15442,
    "BSTAR": 1.0721e-05,
    "MEAN_MOTION_DOT": -1.17e-06,
    "MEAN_MOTION_DDOT": 0
  },
  {
    "OBJECT_NAME": "STARLINK-4719",
    "OBJECT_ID": "2022-111B",
    "EPOCH": "2025-06-28T19:58:54.079968",
    "MEAN_MOTION": 15.08856399,
    "ECCENTRICITY": 0.0001414,
    "INCLINATION": 53.2193,
    "RA_OF_ASC_NODE": 343.6098,
    "ARG_OF_PERICENTER": 86.6695,
    "MEAN_ANOMALY": 273.4458,
    "EPHEMERIS_TYPE": 0,
    "CLASSIFICATION_TYPE": "U",
    "NORAD_CAT_ID": 53774,
    "ELEMENT_SET_NO": 999,
    "REV_AT_EPOCH": 15442,
    "BSTAR": 0.00011187,
    "MEAN_MOTION_DOT": 1.494e-05,
    "MEAN_MOTION_DDOT": 0
  },
  {
    "OBJECT_NAME": "STARLINK-4722",
    "OBJECT_ID": "2022-111C",
    "EPOCH": "2025-06-28T14:21:09.379008",
    "MEAN_MOTION": 15.0883235,
    "ECCENTRICITY": 0.0001256,
    "INCLINATION": 53.2185,
    "RA_OF_ASC_NODE": 335.0171,
    "ARG_OF_PERICENTER": 96.57,
    "MEAN_ANOMALY": 263.5436,
    "EPHEMERIS_TYPE": 0,
    "CLASSIFICATION_TYPE": "U",
    "NORAD_CAT_ID": 53775,
    "ELEMENT_SET_NO": 999,
    "REV_AT_EPOCH": 15533,
    "BSTAR": -1.6604e-06,
    "MEAN_MOTION_DOT": -3.14e-06,
    "MEAN_MOTION_DDOT": 0
  },
  {
    "OBJECT_NAME": "STARLINK-4708",
    "OBJECT_ID": "2022-111D",
    "EPOCH": "2025-06-28T22:00:03.000096",
    "MEAN_MOTION": 15.78822615,
    "ECCENTRICITY": 0.0001362,
    "INCLINATION": 53.2113,
    "RA_OF_ASC_NODE": 321.4739,
    "ARG_OF_PERICENTER": 42.1951,
    "MEAN_ANOMALY": 304.9071,
    "EPHEMERIS_TYPE": 0,
    "CLASSIFICATION_TYPE": "U",
    "NORAD_CAT_ID": 53776,
    "ELEMENT_SET_NO": 999,
    "REV_AT_EPOCH": 15473,
    "BSTAR": 0.0026367,
    "MEAN_MOTION_DOT": 0.00502047,
    "MEAN_MOTION_DDOT": 0
  },
  {
    "OBJECT_NAME": "STARLINK-4664",
    "OBJECT_ID": "2022-111E",
    "EPOCH": "2025-06-28T14:10:32.346624",
    "MEAN_MOTION": 15.0883961,
    "ECCENTRICITY": 0.0001318,
    "INCLINATION": 53.2188,
    "RA_OF_ASC_NODE": 334.9728,
    "ARG_OF_PERICENTER": 91.2438,
    "MEAN_ANOMALY": 268.8705,
    "EPHEMERIS_TYPE": 0,
    "CLASSIFICATION_TYPE": "U",
    "NORAD_CAT_ID": 53777,
    "ELEMENT_SET_NO": 999,
    "REV_AT_EPOCH": 15533,
    "BSTAR": -1.6664e-05,
    "MEAN_MOTION_DOT": -5.53e-06,
    "MEAN_MOTION_DDOT": 0
  },
  {
    "OBJECT_NAME": "STARLINK-4709",
    "OBJECT_ID": "2022-111F",
    "EPOCH": "2025-06-28T21:11:05.629056",
    "MEAN_MOTION": 15.08835197,
    "ECCENTRICITY": 0.0001415,
    "INCLINATION": 53.2196,
    "RA_OF_ASC_NODE": 338.2295,
    "ARG_OF_PERICENTER": 81.6178,
    "MEAN_ANOMALY": 278.4975,
    "EPHEMERIS_TYPE": 0,
    "CLASSIFICATION_TYPE": "U",
    "NORAD_CAT_ID": 53778,
    "ELEMENT_SET_NO": 999,
    "REV_AT_EPOCH": 15450,
    "BSTAR": 1.8728e-05,
    "MEAN_MOTION_DOT": 1e-07,
    "MEAN_MOTION_DDOT": 0
  },
  {
    "OBJECT_NAME": "STARLINK-4706",
    "OBJECT_ID": "2022-111G",
    "EPOCH": "2025-06-28T14:05:14.269344",
    "MEAN_MOTION": 15.08833755,
    "ECCENTRICITY": 0.0001241,
    "INCLINATION": 53.2184,
    "RA_OF_ASC_NODE": 334.949,
    "ARG_OF_PERICENTER": 91.414,
    "MEAN_ANOMALY": 268.6994,
    "EPHEMERIS_TYPE": 0,
    "CLASSIFICATION_TYPE": "U",
    "NORAD_CAT_ID": 53779,
    "ELEMENT_SET_NO": 999,
    "REV_AT_EPOCH": 15533,
    "BSTAR": 8.8077e-08,
    "MEAN_MOTION_DOT": -2.86e-06,
    "MEAN_MOTION_DDOT": 0
  },
  {
    "OBJECT_NAME": "STARLINK-4678",
    "OBJECT_ID": "2022-111H",
    "EPOCH": "2025-06-28T14:15:50.968224",
    "MEAN_MOTION": 15.0883616,
    "ECCENTRICITY": 0.0002202,
    "INCLINATION": 53.2189,
    "RA_OF_ASC_NODE": 334.9941,
    "ARG_OF_PERICENTER": 117.3495,
    "MEAN_ANOMALY": 242.7722,
    "EPHEMERIS_TYPE": 0,
    "CLASSIFICATION_TYPE": "U",
    "NORAD_CAT_ID": 53780,
    "ELEMENT_SET_NO": 999,
    "REV_AT_EPOCH": 15533,
    "BSTAR": 5.39e-05,
    "MEAN_MOTION_DOT": 5.7e-06,
    "MEAN_MOTION_DDOT": 0
  },
  {
    "OBJECT_NAME": "STARLINK-4462",
    "OBJECT_ID": "2022-111J",
    "EPOCH": "2025-06-28T20:10:51.303648",
    "MEAN_MOTION": 15.08837444,
    "ECCENTRICITY": 0.0001337,
    "INCLINATION": 53.2191,
    "RA_OF_ASC_NODE": 333.6898,
    "ARG_OF_PERICENTER": 90.7342,
    "MEAN_ANOMALY": 269.3803,
    "EPHEMERIS_TYPE": 0,
    "CLASSIFICATION_TYPE": "U",
    "NORAD_CAT_ID": 53781,
    "ELEMENT_SET_NO": 999,
    "REV_AT_EPOCH": 15456,
    "BSTAR": 4.5207e-06,
    "MEAN_MOTION_DOT": -2.16e-06,
    "MEAN_MOTION_DDOT": 0
  },
  {
    "OBJECT_NAME": "STARLINK-4679",
    "OBJECT_ID": "2022-111K",
    "EPOCH": "2025-06-28T13:59:55.765248",
    "MEAN_MOTION": 15.08834185,
    "ECCENTRICITY": 0.000137,
    "INCLINATION": 53.2186,
    "RA_OF_ASC_NODE": 334.9261,
    "ARG_OF_PERICENTER": 93.6058,
    "MEAN_ANOMALY": 266.5091,
    "EPHEMERIS_TYPE": 0,
    "CLASSIFICATION_TYPE": "U",
    "NORAD_CAT_ID": 53782,
    "ELEMENT_SET_NO": 999,
    "REV_AT_EPOCH": 15533,
    "BSTAR": -6.1752e-06,
    "MEAN_MOTION_DOT": -3.86e-06,
    "MEAN_MOTION_DDOT": 0
  }
]